COMMENT,ORIGINATOR,NORAD_CAT_ID,OBJECT_NAME,OBJECT_TYPE,CLASSIFICATION_TYPE,INTLDES,EPOCH,EPOCH_MICROSECONDS,MEAN_MOTION,ECCENTRICITY,INCLINATION,RA_OF_ASC_NODE,ARG_OF_PERICENTER,MEAN_ANOMALY,EPHEMERIS_TYPE,ELEMENT_SET_NO,REV_AT_EPOCH,BSTAR,MEAN_MOTION_DOT,MEAN_MOTION_DDOT,FILE,TLE_LINE0,TLE_LINE1,TLE_LINE2,OBJECT_ID,OBJECT_NUMBER,SEMIMAJOR_AXIS,PERIOD,APOGEE,PERIGEE,DECAYED
"GENERATED VIA SPACETRACK.ORG API","18 SPCS","48896","SPACEBEE-105","PAYLOAD","U","21059T","2024-01-24 22:01:15","848256","15.67940978","0.000393","97.6051","177.1121","279.5377","80.5439","0","999","14362","0.0019843","0.00224404","0","4170567","0 SPACEBEE-105","1 48896U 21059T   24024.91754454  .00224404  00000-0  19843-2 0  9996","2 48896  97.6051 177.1121 0003930 279.5377  80.5439 15.67940978143621","2021-059T","48896","6742.931","91.840","367.446","362.146","0"
"GENERATED VIA SPACETRACK.ORG API","18 SPCS","48896","SPACEBEE-105","PAYLOAD","U","21059T","2024-01-24 22:01:15","848256","15.67940978","0.000393","97.6051","177.1121","279.5377","80.5439","0","999","14362","0.0019843","0.00224404","0","4170701","0 SPACEBEE-105","1 48896U 21059T   24024.91754454  .00224404  00000-0  19843-2 0  9996","2 48896  97.6051 177.1121 0003930 279.5377  80.5439 15.67940978143621","2021-059T","48896","6742.931","91.840","367.446","362.146","0"
"GENERATED VIA SPACETRACK.ORG API","18 SPCS","48896","SPACEBEE-105","PAYLOAD","U","21059T","2024-01-25 08:44:31","966368","15.68134255","0.0003875","97.605","177.5963","280.2167","79.8656","0","999","14369","0.0019295","0.00219795","0","4171093","0 SPACEBEE-105","1 48896U 21059T   24025.36425887  .00219795  00000-0  19295-2 0  9999","2 48896  97.6050 177.5963 0003875 280.2167  79.8656 15.68134255143695","2021-059T","48896","6742.377","91.829","366.854","361.629","0"
"GENERATED VIA SPACETRACK.ORG API","18 SPCS","48896","SPACEBEE-105","PAYLOAD","U","21059T","2024-01-25 08:44:31","966368","15.68134255","0.0003875","97.605","177.5963","280.2167","79.8656","0","999","14369","0.0019295","0.00219795","0","4171415","0 SPACEBEE-105","1 48896U 21059T   24025.36425887  .00219795  00000-0  19295-2 0  9999","2 48896  97.6050 177.5963 0003875 280.2167  79.8656 15.68134255143695","2021-059T","48896","6742.377","91.829","366.854","361.629","0"
"GENERATED VIA SPACETRACK.ORG API","18 SPCS","48896","SPACEBEE-105","PAYLOAD","U","21059T","2024-01-26 09:14:34","113120","15.68585941","0.0003873","97.6047","178.7037","281.5821","78.5004","0","999","14385","0.0021048","0.00244956","0","4171663","0 SPACEBEE-105","1 48896U 21059T   24026.38511705  .00244956  00000-0  21048-2 0  9993","2 48896  97.6047 178.7037 0003873 281.5821  78.5004 15.68585941143858","2021-059T","48896","6741.082","91.802","365.558","360.336","0"
"GENERATED VIA SPACETRACK.ORG API","18 SPCS","48896","SPACEBEE-105","PAYLOAD","U","21059T","2024-01-26 09:14:34","113120","15.68585941","0.0003873","97.6047","178.7037","281.5821","78.5004","0","999","14385","0.0021048","0.00244956","0","4171858","0 SPACEBEE-105","1 48896U 21059T   24026.38511705  .00244956  00000-0  21048-2 0  9993","2 48896  97.6047 178.7037 0003873 281.5821  78.5004 15.68585941143858","2021-059T","48896","6741.082","91.802","365.558","360.336","0"
"GENERATED VIA SPACETRACK.ORG API","18 SPCS","48896","SPACEBEE-105","PAYLOAD","U","21059T","2024-01-26 23:01:16","627872","15.68835828","0.0003956","97.605","179.3262","281.9954","78.0863","0","999","14394","0.0020613","0.00242271","0","4172206","0 SPACEBEE-105","1 48896U 21059T   24026.95922023  .00242271  00000-0  20613-2 0  9990","2 48896  97.6050 179.3262 0003956 281.9954  78.0863 15.68835828143942","2021-059T","48896","6740.366","91.788","364.898","359.565","0"
"GENERATED VIA SPACETRACK.ORG API","18 SPCS","48896","SPACEBEE-105","PAYLOAD","U","21059T","2024-01-27 09:44:10","541184","15.69044922","0.0004061","97.6053","179.8103","283.2786","76.8022","0","999","14401","0.002008","0.00237906","0","4172745","0 SPACEBEE-105","1 48896U 21059T   24027.40567756  .00237906  00000-0  20080-2 0  9996","2 48896  97.6053 179.8103 0004061 283.2786  76.8022 15.69044922144010","2021-059T","48896","6739.768","91.776","364.370","358.896","0"
"GENERATED VIA SPACETRACK.ORG API","18 SPCS","48896","SPACEBEE-105","PAYLOAD","U","21059T","2024-01-27 20:26:59","661024","15.69235375","0.0004118","97.6055","180.2948","283.7669","76.3133","0","999","14408","0.0019533","0.00233099","0","4172992","0 SPACEBEE-105","1 48896U 21059T   24027.85207941  .00233099  00000-0  19533-2 0  9992","2 48896  97.6055 180.2948 0004118 283.7669  76.3133 15.69235375144082","2021-059T","48896","6739.222","91.764","363.862","358.312","0"
"GENERATED VIA SPACETRACK.ORG API","18 SPCS","48896","SPACEBEE-105","PAYLOAD","U","21059T","2024-01-27 23:30:38","510496","15.69293097","0.0004053","97.6055","180.4332","282.912","77.1689","0","999","14410","0.0019637","0.00234945","0","4173085","0 SPACEBEE-105","1 48896U 21059T   24027.97961239  .00234945  00000-0  19637-2 0  9998","2 48896  97.6055 180.4332 0004053 282.9120  77.1689 15.69293097144105","2021-059T","48896","6739.057","91.761","363.653","358.191","0"
"GENERATED VIA SPACETRACK.ORG API","18 SPCS","48896","SPACEBEE-105","PAYLOAD","U","21059T","2024-01-28 08:41:32","828064","15.69448751","0.0004007","97.6055","180.8488","283.0847","76.9967","0","999","14416","0.0017375","0.00208535","0","4173390","0 SPACEBEE-105","1 48896U 21059T   24028.36218551  .00208535  00000-0  17375-2 0  9997","2 48896  97.6055 180.8488 0004007 283.0847  76.9967 15.69448751144169","2021-059T","48896","6738.611","91.752","363.177","357.776","0"
"GENERATED VIA SPACETRACK.ORG API","18 SPCS","48896","SPACEBEE-105","PAYLOAD","U","21059T","2024-01-28 08:41:32","828064","15.69448751","0.0004007","97.6055","180.8488","283.0847","76.9967","0","999","14416","0.0017375","0.00208535","0","4173554","0 SPACEBEE-105","1 48896U 21059T   24028.36218551  .00208535  00000-0  17375-2 0  9997","2 48896  97.6055 180.8488 0004007 283.0847  76.9967 15.69448751144169","2021-059T","48896","6738.611","91.752","363.177","357.776","0"
"GENERATED VIA SPACETRACK.ORG API","18 SPCS","48896","SPACEBEE-105","PAYLOAD","U","21059T","2024-01-28 22:27:47","958336","15.69701785","0.0004076","97.6052","181.4723","285.1348","74.9462","0","999","14425","0.0019255","0.00234249","0","4173840","0 SPACEBEE-105","1 48896U 21059T   24028.93597174  .00234249  00000-0  19255-2 0  9991","2 48896  97.6052 181.4723 0004076 285.1348  74.9462 15.69701785144257","2021-059T","48896","6737.887","91.737","362.499","357.006","0"
"GENERATED VIA SPACETRACK.ORG API","18 SPCS","48896","SPACEBEE-105","PAYLOAD","U","21059T","2024-01-28 22:27:47","958336","15.69701785","0.0004076","97.6052","181.4723","285.1348","74.9462","0","999","14425","0.0019255","0.00234249","0","4173953","0 SPACEBEE-105","1 48896U 21059T   24028.93597174  .00234249  00000-0  19255-2 0  9991","2 48896  97.6052 181.4723 0004076 285.1348  74.9462 15.69701785144257","2021-059T","48896","6737.887","91.737","362.499","357.006","0"
"GENERATED VIA SPACETRACK.ORG API","18 SPCS","48896","SPACEBEE-105","PAYLOAD","U","21059T","2024-01-29 09:10:20","490240","15.69920129","0.0004052","97.6051","181.957","284.5736","75.5075","0","999","14432","0.00202","0.00248389","0","4174217","0 SPACEBEE-105","1 48896U 21059T   24029.38218160  .00248389  00000-0  20200-2 0  9998","2 48896  97.6051 181.9570 0004052 284.5736  75.5075 15.69920129144329","2021-059T","48896","6737.263","91.724","361.857","356.398","0"
"GENERATED VIA SPACETRACK.ORG API","18 SPCS","48896","SPACEBEE-105","PAYLOAD","U","21059T","2024-01-29 09:10:20","490240","15.69920129","0.0004052","97.6051","181.957","284.5736","75.5075","0","999","14432","0.00202","0.00248389","0","4174567","0 SPACEBEE-105","1 48896U 21059T   24029.38218160  .00248389  00000-0  20200-2 0  9998","2 48896  97.6051 181.9570 0004052 284.5736  75.5075 15.69920129144329","2021-059T","48896","6737.263","91.724","361.857","356.398","0"
"GENERATED VIA SPACETRACK.ORG API","18 SPCS","48896","SPACEBEE-105","PAYLOAD","U","21059T","2024-01-30 09:38:41","749440","15.70381304","0.0004095","97.6055","183.0655","285.6756","74.4054","0","999","14448","0.0018721","0.0023422","0","4174978","0 SPACEBEE-105","1 48896U 21059T   24030.40187210  .00234220  00000-0  18721-2 0  9998","2 48896  97.6055 183.0655 0004095 285.6756  74.4054 15.70381304144481","2021-059T","48896","6735.943","91.697","360.567","355.050","0"
"GENERATED VIA SPACETRACK.ORG API","18 SPCS","48896","SPACEBEE-105","PAYLOAD","U","21059T","2024-01-30 09:38:41","749440","15.70381304","0.0004095","97.6055","183.0655","285.6756","74.4054","0","999","14448","0.0018721","0.0023422","0","4175201","0 SPACEBEE-105","1 48896U 21059T   24030.40187210  .00234220  00000-0  18721-2 0  9998","2 48896  97.6055 183.0655 0004095 285.6756  74.4054 15.70381304144481","2021-059T","48896","6735.943","91.697","360.567","355.050","0"
"GENERATED VIA SPACETRACK.ORG API","18 SPCS","48896","SPACEBEE-105","PAYLOAD","U","21059T","2024-01-30 21:52:42","459456","15.70615308","0.0004259","97.6055","183.6198","286.4282","73.6511","0","999","14456","0.0017981","0.00226957","0","4175464","0 SPACEBEE-105","1 48896U 21059T   24030.91160254  .00226957  00000-0  17981-2 0  9998","2 48896  97.6055 183.6198 0004259 286.4282  73.6511 15.70615308144566","2021-059T","48896","6735.274","91.684","360.008","354.271","0"
"GENERATED VIA SPACETRACK.ORG API","18 SPCS","48896","SPACEBEE-105","PAYLOAD","U","21059T","2024-01-31 08:34:52","564512","15.70827321","0.0004215","97.6057","184.1055","286.0556","74.0241","0","999","14463","0.0018155","0.00231296","0","4176118","0 SPACEBEE-105","1 48896U 21059T   24031.35755283  .00231296  00000-0  18155-2 0  9995","2 48896  97.6057 184.1055 0004215 286.0556  74.0241 15.70827321144631","2021-059T","48896","6734.668","91.671","359.372","353.695","0"
